{
    "links": {
        "self": "http://www.neowsapp.com/rest/v1/neo/3554862?api_key=iIulBulltgU6a56xZRHN4H3l9WmuAYTsLGpBGhQ2"
    },
    "id": "3554862",
    "neo_reference_id": "3554862",
    "name": "(2010 YW)",
    "designation": "2010 YW",
    "nasa_jpl_url": "http://ssd.jpl.nasa.gov/sbdb.cgi?sstr=3554862",
    "absolute_magnitude_h": 24.3,
    "estimated_diameter": {
        "kilometers": {
            "estimated_diameter_min": 0.0366906138,
            "estimated_diameter_max": 0.0820427065
        },
        "meters": {
            "estimated_diameter_min": 36.6906137531,
            "estimated_diameter_max": 82.0427064882
        },
        "miles": {
            "estimated_diameter_min": 0.0227984834,
            "estimated_diameter_max": 0.0509789586
        },
        "feet": {
            "estimated_diameter_min": 120.3760332259,
            "estimated_diameter_max": 269.1689931548
        }
    },
    "is_potentially_hazardous_asteroid": false,
    "close_approach_data": [
        {
            "close_approach_date": "2010-12-31",
            "close_approach_date_full": "2010-Dec-31 22:01",
            "epoch_date_close_approach": 1293832860000,
            "relative_velocity": {
                "kilometers_per_second": "8.7623834331",
                "kilometers_per_hour": "31544.5803590127",
                "miles_per_hour": "19600.5755014098"
            },
            "miss_distance": {
                "astronomical": "0.035359835",
                "lunar": "13.754975815",
                "kilometers": "5289755.99955145",
                "miles": "3286901.96245201"
            },
            "orbiting_body": "Earth"
        }
    ],
    "orbital_data": {
        "orbit_id": "10",
        "orbit_determination_date": "2017-04-06 08:55:06",
        "first_observation_date": "2010-12-29",
        "last_observation_date": "2011-01-09",
        "data_arc_in_days": 11,
        "observations_used": 40,
        "orbit_uncertainty": "8",
        "minimum_orbit_intersection": ".0139879",
        "jupiter_tisserand_invariant": "3.964",
        "epoch_osculation": "2455563.5",
        "eccentricity": ".4473940603878919",
        "semi_major_axis": "1.774965635167318",
        "inclination": "8.839985996203827",
        "ascending_node_longitude": "283.3567540969019",
        "orbital_period": "863.7406329973239",
        "perihelion_distance": ".980856552600838",
        "perihelion_argument": "200.3958770411124",
        "aphelion_distance": "2.569074717733798",
        "perihelion_time": "2455580.860915137900",
        "mean_anomaly": "352.7641131945412",
        "mean_motion": ".4167917847638359",
        "equinox": "J2000",
        "orbit_class": {
            "orbit_class_type": "APO",
            "orbit_class_description": "Near-Earth asteroid orbits which cross the Earth’s orbit similar to that of 1862 Apollo",
            "orbit_class_range": "a (semi-major axis) > 1.0 AU; q (perihelion) < 1.017 AU"
        }
    },
    "is_sentry_object": false
}